[{"OBJECT_NAME":"STARLINK-6134","OBJECT_ID":"2023-090K","EPOCH":"2026-03-09T20:16:50.646432","MEAN_MOTION":15.02533503,"ECCENTRICITY":0.0001195,"INCLINATION":43.0039,"RA_OF_ASC_NODE":274.0734,"ARG_OF_PERICENTER":270.6748,"MEAN_ANOMALY":89.3957,"EPHEMERIS_TYPE":0,"CLASSIFICATION_TYPE":"U","NORAD_CAT_ID":57110,"ELEMENT_SET_NO":999,"REV_AT_EPOCH":15043,"BSTAR":0.00010390364,"MEAN_MOTION_DOT":1.2e-5,"MEAN_MOTION_DDOT":0},{"OBJECT_NAME":"UNKNOWN","OBJECT_ID":"","EPOCH":"2026-03-08T16:53:53.910816","MEAN_MOTION":15.05228096,"ECCENTRICITY":0.0007208,"INCLINATION":85.8751,"RA_OF_ASC_NODE":153.385,"ARG_OF_PERICENTER":323.4201,"MEAN_ANOMALY":36.654,"EPHEMERIS_TYPE":0,"CLASSIFICATION_TYPE":"U","NORAD_CAT_ID":81343,"ELEMENT_SET_NO":999,"REV_AT_EPOCH":46724,"BSTAR":0.00071714,"MEAN_MOTION_DOT":0.00010274,"MEAN_MOTION_DDOT":0}]
